STARLINK-5736           
1 55584C 23020R   26111.03173611  .00027088  00000+0  98125-3 0  1115
2 55584  43.0029 126.5067 0001734 271.1027  80.5493 15.27560178    11
STARLINK-5769           
1 55585C 23020S   26111.04493056  .00006715  00000+0  24321-3 0  1116
2 55585  43.0019 115.3392 0000817 237.0038 116.4562 15.27577466    16
STARLINK-5767           
1 55586C 23020T   26110.95812500  .00031064  00000+0  11547-2 0  1104
2 55586  43.0018 126.5690 0001507 252.8712 200.8307 15.26710594    17
STARLINK-5727           
1 55587C 23020U   26111.05534722  .00011688  00000+0  43423-3 0  1114
2 55587  43.0009 125.9727 0001225 263.1756 354.8050 15.26738341    17
STARLINK-5728           
1 55588C 23020V   26111.05256944  .00011141  00000+0  42445-3 0  1119
2 55588  43.0018 126.0990 0001252 255.4556 332.1558 15.25907383    19
STARLINK-5697           
1 55589C 23020W   26110.93937500  .00034337  00000+0  12428-2 0  1108
2 55589  43.0015 126.6002 0001337 256.2693 123.7730 15.27584053    15
STARLINK-5762           
1 55590C 23020X   26110.94215278  .00209910  00000+0  76130-2 0  1103
2 55590  43.0005 126.5088 0001676 267.4395 163.3285 15.27429850    16
STARLINK-5760           
1 55591C 23020Y   26111.03520833  .00013733  00000+0  51019-3 0  1118
2 55591  43.0020 126.1250 0000896 259.1782 262.2488 15.26739355    19
STARLINK-5759           
1 55592C 23020Z   26111.02965278  .00026203  00000+0  94916-3 0  1113
2 55592  43.0015 125.7769 0001600 269.0636  22.4041 15.27561757    17
STARLINK-5703           
1 55593C 23020AA  26110.91298611  .00029318  00000+0  10619-2 0  1107
2 55593  43.0019 126.3879 0001969 270.5319 119.8463 15.27561843    19
STARLINK-5750           
1 55594C 23020AB  26110.99006944  .00031704  00000+0  11484-2 0  1105
2 55594  43.0005 126.0517 0001646 270.8002 141.5509 15.27559664    16
STARLINK-5729           
1 55596C 23020AD  26110.96576389  .00026789  00000+0  97048-3 0  1107
2 55596  43.0009 126.3201 0001466 268.9660 312.8848 15.27558529    11
STARLINK-5743           
1 55597C 23020AE  26110.99145833  .00026292  00000+0  97682-3 0  1100
2 55597  43.0020 114.8672 0001229 262.9553 122.4734 15.26730492    10
STARLINK-5756           
1 55598C 23020AF  26110.92826389  .00024930  00000+0  90320-3 0  1105
2 55598  43.0013 115.8132 0001309 256.3718 238.4853 15.27557588    18
STARLINK-5761           
1 55599C 23020AG  26110.91437500  .00033661  00000+0  12192-2 0  1109
2 55599  43.0008 115.9472 0001235 273.0424 124.0960 15.27560441    10
STARLINK-5755           
1 55600C 23020AH  26110.91854167  .00024943  00000+0  90344-3 0  1103
2 55600  43.0008 115.6234 0001595 264.8444 289.6507 15.27565297    14
STARLINK-5744           
1 55601C 23020AJ  26111.05743056  .00007686  00000+0  28552-3 0  1112
2 55601  43.0015 126.2350 0001185 261.7632 282.1183 15.26742481    19
STARLINK-5764           
1 55602C 23020AK  26110.94770833  .00030402  00000+0  11299-2 0  1103
2 55602  43.0010 115.6651 0001405 263.4145 356.6159 15.26716292    15
STARLINK-5735           
1 55603C 23020AL  26111.06298611  .00315820  00000+0  11712-1 0  1117
2 55603  43.0031 114.7603 0001991 278.6183  14.3163 15.26645986    10
STARLINK-5748           
1 55604C 23020AM  26111.00048611  .00007750  00000+0  28066-3 0  1117
2 55604  43.0014 100.4550 0001304 260.3454  22.5319 15.27581397    12
STARLINK-5725           
1 55605C 23020AN  26111.06020833  .00000137  00000+0  49657-5 0  1113
2 55605  43.0006 114.8754 0001223 259.5982 333.6349 15.27598162    12
STARLINK-5700           
1 55607C 23020AQ  26111.01298611  .00023072  00000+0  85706-3 0  1117
2 55607  43.0007 115.1327 0001661 262.2172  75.3142 15.26736555    13
STARLINK-5726           
1 55608C 23020AR  26111.05673611 -.00002156  00000+0 -78066-4 0  1113
2 55608  43.0014 115.1217 0001161 260.1442 214.9455 15.27584210    10
STARLINK-5719           
1 55609C 23020AS  26111.02618056  .00015589  00000+0  57913-3 0  1112
2 55609  43.0004 115.1095 0001731 265.5589 122.8003 15.26737379    19
STARLINK-5722           
1 55610C 23020AT  26111.05604167 -.00000810  00000+0 -29351-4 0  1114
2 55610  43.0017 115.2226 0001151 262.3366 166.4624 15.27578570    16
STARLINK-5730           
1 55611C 23020AU  26111.03173611  .00012504  00000+0  46445-3 0  1111
2 55611  42.9997 115.3432 0001106 255.0481  48.2828 15.26744446    18
STARLINK-5734           
1 55612C 23020AV  26111.04979167  .00001141  00000+0  42373-4 0  1115
2 55612  43.0008 115.1491 0000861 269.4569 174.0150 15.26744808    18
STARLINK-5714           
1 55614C 23020AX  26110.98659722  .00019122  00000+0  70960-3 0  1100
2 55614  43.0022 100.4142 0001375 269.8425 326.7661 15.26772736    16
STARLINK-5712           
1 55615C 23020AY  26110.92548611  .00034347  00000+0  12762-2 0  1100
2 55615  43.0019 115.1770 0001360 255.6295 146.3228 15.26724004    15
STARLINK-5710           
1 55616C 23020AZ  26110.91993056  .00032510  00000+0  12076-2 0  1105
2 55616  43.0036 115.4328 0001690 274.7722   4.9353 15.26732938    13
STARLINK-5721           
1 55617C 23020BA  26110.99909722  .00020725  00000+0  76993-3 0  1105
2 55617  43.0019 114.8116 0001179 264.2335 160.7435 15.26735988    19
STARLINK-5717           
1 55618C 23020BB  26111.01854167  .00016711  00000+0  62079-3 0  1113
2 55618  43.0037 114.9572 0002031 293.4070 135.0995 15.26736393    12
STARLINK-5720           
1 55619C 23020BC  26111.02062500  .00018480  00000+0  66924-3 0  1115
2 55619  43.0005 115.0748 0001427 266.2843 116.1033 15.27573790    13
STARLINK-5718           
1 55620C 23020BD  26110.96645833  .00025700  00000+0  95484-3 0  1100
2 55620  43.0036 115.2598 0001902 287.1055 209.6505 15.26729016    14
STARLINK-5709           
1 55621C 23020BE  26111.03659722  .00006530  00000+0  24269-3 0  1116
2 55621  43.0029 114.7247 0001502 282.0027 299.8450 15.26728295    19
STARLINK-5702           
1 55622C 23020BF  26110.93173611  .00032991  00000+0  12257-2 0  1105
2 55622  43.0026 115.5102 0001839 267.7631  14.5853 15.26725383    14
STARLINK-5698           
1 55623C 23020BG  26110.93868056  .00030252  00000+0  11240-2 0  1109
2 55623  43.0003 115.6074 0001628 272.4347 349.1694 15.26725165    10
STARLINK-5484           
1 55628C 23021A   26110.93868056  .00026327  00000+0  22059-2 0  1103
2 55628  70.0007  98.0183 0003908 264.1156 130.1387 14.98322332    17
STARLINK-5497           
1 55629C 23021B   26110.96923611  .00003420  00000+0  28656-3 0  1105
2 55629  70.0006  97.9674 0003383 275.2280 261.2777 14.98336991    13
STARLINK-5303           
1 55630C 23021C   26110.98243056 -.00003823  00000+0 -32039-3 0  1106
2 55630  70.0007  97.8821 0003562 269.4806  23.1382 14.98331894    11
STARLINK-5558           
1 55631C 23021D   26110.94284722  .00020009  00000+0  16768-2 0  1101
2 55631  70.0003  97.8281 0003199 266.0719 308.1751 14.98320966    14
STARLINK-5546           
1 55632C 23021E   26110.92340278  .00035650  00000+0  29871-2 0  1106
2 55632  70.0006  97.9787 0003091 267.0704 112.3223 14.98319234    11
STARLINK-5498           
1 55633C 23021F   26111.02965278 -.00031532  00000+0 -26419-2 0  1115
2 55633  70.0011  97.6867 0003631 266.7573 348.0819 14.98354045    12
STARLINK-5500           
1 55634C 23021G   26110.92826389  .00032412  00000+0  27160-2 0  1102
2 55634  70.0007  97.9684 0003098 267.2104 137.5135 14.98318355    17
STARLINK-5495           
1 55635C 23021H   26111.03798611 -.00041369  00000+0 -34665-2 0  1114
2 55635  70.0016  77.6964 0003556 265.7913 125.2183 14.98354706    11
STARLINK-5218           
1 55636C 23021J   26111.04423611 -.00033135  00000+0 -27757-2 0  1117
2 55636  70.0005  97.5982 0003074 266.8298 111.5935 14.98364083    16
STARLINK-5062           
1 55637C 23021K   26110.95881944 -.00020207  00000+0 -16932-2 0  1102
2 55637  70.0015  77.9921 0003224 266.4751 327.5742 14.98346143    12
STARLINK-5507           
1 55638C 23021L   26110.96576389  .00007069  00000+0  59223-3 0  1108
2 55638  70.0006  97.8219 0003562 265.8485  26.9834 14.98335192    10
STARLINK-5508           
1 55639C 23021M   26111.03659722 -.00041466  00000+0 -34746-2 0  1115
2 55639  70.0016  77.6723 0003213 267.6563 137.4795 14.98355681    17
STARLINK-5069           
1 55640C 23021N   26110.92270833  .00000356  00000+0  29857-4 0  1105
2 55640  70.0013  77.9313 0002971 265.2533 269.1462 14.98329176    19
STARLINK-5065           
1 55641C 23021P   26111.01159722 -.00042566  00000+0 -35670-2 0  1110
2 55641  70.0017  77.8821 0003360 268.0533 228.0962 14.98353852    18
STARLINK-5483           
1 55643C 23021R   26110.99145833 -.00035252  00000+0 -29531-2 0  1108
2 55643  70.0017  77.9797 0003580 267.8322  74.6283 14.98361827    12
STARLINK-5502           
1 55644C 23021S   26110.96368056 -.00018593  00000+0 -15579-2 0  1106
2 55644  70.0016  77.9308 0003288 266.1130  39.1749 14.98345917    19
STARLINK-5510           
1 55647C 23021V   26110.95048611 -.00014743  00000+0 -12353-2 0  1100
2 55647  70.0013  77.7603 0003328 267.4385 146.7969 14.98345929    18
STARLINK-5501           
1 55648C 23021W   26110.94215278 -.00009582  00000+0 -80293-3 0  1109
2 55648  70.0016  77.9603 0002956 265.9622 305.7539 14.98340959    15
STARLINK-5469           
1 55649C 23021X   26110.93659722 -.00006931  00000+0 -58072-3 0  1100
2 55649  70.0016  77.8472 0003078 267.0738  27.2420 14.98343620    19
STARLINK-5494           
1 55650C 23021Y   26110.96576389 -.00017746  00000+0 -14865-2 0  1109
2 55650  70.0014  77.8492 0002863 270.8183 113.2352 14.98359483    12
STARLINK-5506           
1 55651C 23021Z   26111.04284722 -.00043424  00000+0 -36388-2 0  1114
2 55651  70.0015  77.7552 0003019 271.3525  78.2868 14.98355915    18
STARLINK-5487           
1 55652C 23021AA  26110.96159722 -.00017384  00000+0 -14565-2 0  1104
2 55652  70.0014  77.8091 0003283 267.5021 139.1110 14.98346304    17
